0 UBAKUSAT
1 43466U 98067NP  19176.35824642  .00013338  00000-0  13129-3 0  9998
2 43466  51.6372 300.5858 0000535 155.9108 204.1913 15.66337470 63966
0 IRAZU
1 43468U 98067NR  19176.20798157  .00018607  00000-0  16105-3 0  9996
2 43468  51.6361 298.0575 0000408 221.6793 138.4173 15.69220890163972
0 LONGJIANG 2
1 43472U 18045C   18140.97000001 -.00010094 +00000-0 +00000-0 0  9994
2 43472 027.5020 209.5210 9658153 171.2240 002.0960 00.09844104000019
0 BEIDOU IGSO-7
1 43539U 18057A   19176.11218831 -.00000058  00000-0  00000+0 0  9997
2 43539  55.0364 185.5412 0024070 201.8471  39.3367  1.00275648  3592
0 CUBERRT
1 43546U 98067NU  19176.47438426  .00019164  00000-0  19710-3 0  9996
2 43546  51.6383 305.1099 0004565 158.1069 202.0122 15.64894304 54054
0 TEMPEST-D
1 43547U 98067NV  19176.39859012  .00002291  00000-0  36603-4 0  9990
2 43547  51.6391 312.8532 0005945 145.6377 214.5000 15.57993465 53622
0 RAINCUBE
1 43548U 98067NW  19176.38292129  .00008306  00000-0  10097-3 0  9991
2 43548  51.6374 308.9849 0005508 158.8829 201.2393 15.61517772 54126
0 HALOSAT
1 43549U 98067NX  19175.74705012 +.00008539 +00000-0 +10386-3 0  9990
2 43549 051.6382 312.2491 0005495 158.1407 201.9823 15.61458758053589
0 RADIX
1 43550U 98067NY  19175.37993655 +.00017146 +00000-0 +16785-3 0  9996
2 43550 051.6358 309.0023 0004026 179.6633 180.4366 15.66233186054054
0 EQUISAT
1 43552U 98067PA  19175.74744194 +.00008148 +00000-0 +98265-4 0  9997
2 43552 051.6393 311.5254 0006114 166.2879 193.8282 15.61755536053960
0 AEROCUBE 12A
1 43556U 18046C   19175.73155325  .00001425  00000-0  62924-4 0  9995
2 43556  51.6434  27.6817 0009072  92.1721 268.0298 15.28716119 52484
0 AEROCUBE 12B
1 43557U 18046D   19175.74554849  .00000723  00000-0  38304-4 0  9996
2 43557  51.6431  27.7718 0009155  92.2401 267.9627 15.28585050 52438
0 LEMUR 2 VU
1 43558U 18046E   19175.97640223  .00001582  00000-0  67184-4 0  9996
2 43558  51.6435  25.5936 0008512  94.0060 266.1894 15.29363324 52524
0 LEMUR 2 ALEXANDER
1 43559U 18046F   19176.09899230  .00001139  00000-0  51750-4 0  9995
2 43559  51.6436  24.9150 0008558  94.3306 265.8652 15.29455787 52324
0 LEMUR 2 YUASA
1 43560U 18046G   19175.58788529  .00001930  00000-0  79280-4 0  9995
2 43560  51.6435  27.4927 0008880 105.3501 254.8461 15.29334485 52465
0 GALILEO 26 (2C2)
1 43565U 18060B   19174.22938776 -.00000077 +00000-0 +00000-0 0  9999
2 43565 056.5677 050.9325 0003239 303.6516 056.3735 01.70475843005728
0 GALILEO 23 (2C9)
1 43566U 18060C   19175.62252652 -.00000073  00000-0  00000+0 0  9992
2 43566  56.5692  50.8958 0002709 299.8051  60.2236  1.70475666  5721
0 GALILEO 24 (2C0)
1 43567U 18060D   19174.08263564 -.00000078  00000-0  00000+0 0  9991
2 43567  56.5681  50.9390 0002821 301.0285  58.9998  1.70475822  5678
0 SIRIUSSAT-1
1 43595U 98067PG  19176.49310958  .00007772  00000-0  96217-4 0  9991
2 43595  51.6366 309.7078 0003581 135.1472 224.9812 15.61148994 48906
0 SIRIUSSAT-2
1 43596U 98067PH  19175.75596313  .00008473  00000-0  10500-3 0  9990
2 43596  51.6380 313.8192 0004153 133.0738 227.0604 15.60979587 48782
0 OBJECT PN
1 43638U 98067PN  19176.40444985  .00004749  00000-0  68729-4 0  9996
2 43638  51.6386 314.3933 0003097 120.0004 240.1296 15.57991392 40758
0 BEIDOU 3M18
1 43707U 18093B   19175.73906663 -.00000039  00000-0  00000+0 0  9997
2 43707  54.8505 269.2647 0008093 271.7477  92.9481  1.86231840  4056
0 OBJECT D
1 43935U 19003D   19176.48178345  .00000513  00000-0  25297-4 0  9999
2 43935  97.2809 233.9518 0020108  57.9123  49.6265 15.22057648 24097
0 DELPHINI
1 44030U 98067PW  19176.41094863  .00006884  00000-0  10156-3 0  9992
2 44030  51.6391 317.4360 0004797 168.2148 191.8957 15.56627750 22591
0 UNITE
1 44031U 98067PX  19176.32244212  .00004349  00000-0  68904-4 0  9997
2 44031  51.6395 318.3471 0003522 161.1923 198.9199 15.55717557 22575
0 TECHEDSAT 8
1 44032U 98067PY  19176.00946674  .00016819  00000-0  21146-3 0  9995
2 44032  51.6388 317.7567 0003683 170.4417 189.6647 15.59798118 22533
0 CATSAT-1
1 44033U 98067PZ  19176.41690200  .00006513  00000-0  96906-4 0  9999
2 44033  51.6400 317.4864 0004966 168.3184 191.7923 15.56500490 22530
0 OBJECT F
1 44045U 18092F   19175.84046792  .00001705  00000-0  60661-4 0  9996
2 44045  51.6434 341.1233 0013219 110.0464 250.1951 15.34944823 20188
0 ONEWEB-0012
1 44057U 19010A   19175.54350295 +.00000134 +00000-0 +32211-3 0  9997
2 44057 087.8985 045.9447 0002059 074.4754 285.6604 13.15298581015591
0 ONEWEB-0011
1 44062U 19010F   19175.77891335 +.00000257 +00000-0 +66174-3 0  9994
2 44062 087.9369 045.9346 0011706 282.9456 077.0366 13.14356922015834
0 M6P
1 44109U 19018AF  19176.13221293  .00001101  00000-0  38890-4 0  9999
2 44109  97.5088 237.5333 0062036  42.7852  16.6968 15.29715177 12787
0 HARBINGER
1 44229U 19026E   19176.50215487  .00000369  00000-0  24653-4 0  9997
2 44229  40.0221 295.5599 0009628 288.1515  71.8231 15.20491997  7793
0 BEIDOU 2 G8
1 44231U 19027A   19175.93235498 -.00000133 +00000-0 +00000-0 0  9997
2 44231 001.7885 293.9470 0003390 144.0683 250.4671 01.00271300000537
0 OBJECT A
1 44235U 19029A   19175.24391490  .00012508  00000-0  85734-3 0  9990
2 44235  52.9988  32.4629 0002139  60.2036 299.9164 15.06389122  5977
0 OBJECT AA
1 44259U 19029AA  19159.44759213 -.00744824  00000-0 -32746-1 0  9999
2 44259  53.0007 103.0246 0002024 106.0599 254.0620 15.23864773  2439
